CCSDS_OMM_VERS = 2.0
CREATION_DATE  = 
ORIGINATOR     = 

OBJECT_NAME    = ATLAS CENTAUR R/B
OBJECT_ID      = 1972-065B
CENTER_NAME    = EARTH
REF_FRAME      = TEME
TIME_SYSTEM    = UTC
MEAN_ELEMENT_THEORY = SGP/SGP4

EPOCH          = 2026-02-23T15:20:42.482976
MEAN_MOTION    = 14.77641407
ECCENTRICITY   = .0034427
INCLINATION    = 35.0025
RA_OF_ASC_NODE = 28.0888
ARG_OF_PERICENTER = 252.1783
MEAN_ANOMALY   = 107.5160

EPHEMERIS_TYPE = 0
CLASSIFICATION_TYPE = U
NORAD_CAT_ID   = 6155
ELEMENT_SET_NO = 999
REV_AT_EPOCH   = 83918
BSTAR          = .18369E-3
MEAN_MOTION_DOT = .1326E-4
MEAN_MOTION_DDOT = 0

CCSDS_OMM_VERS = 2.0
CREATION_DATE  = 
ORIGINATOR     = 

OBJECT_NAME    = SL-8 R/B
OBJECT_ID      = 1975-112B
CENTER_NAME    = EARTH
REF_FRAME      = TEME
TIME_SYSTEM    = UTC
MEAN_ELEMENT_THEORY = SGP/SGP4

EPOCH          = 2026-02-23T09:10:47.644896
MEAN_MOTION    = 14.38194734
ECCENTRICITY   = .00148173
INCLINATION    = 74.0599
RA_OF_ASC_NODE = 45.2307
ARG_OF_PERICENTER = 144.0237
MEAN_ANOMALY   = 216.1918

EPHEMERIS_TYPE = 0
CLASSIFICATION_TYPE = U
NORAD_CAT_ID   = 8459
ELEMENT_SET_NO = 999
REV_AT_EPOCH   = 62981
BSTAR          = .61345021E-4
MEAN_MOTION_DOT = .16E-5
MEAN_MOTION_DDOT = 0

CCSDS_OMM_VERS = 2.0
CREATION_DATE  = 
ORIGINATOR     = 

OBJECT_NAME    = SL-3 R/B
OBJECT_ID      = 1977-057B
CENTER_NAME    = EARTH
REF_FRAME      = TEME
TIME_SYSTEM    = UTC
MEAN_ELEMENT_THEORY = SGP/SGP4

EPOCH          = 2026-02-23T17:33:39.723264
MEAN_MOTION    = 15.45054469
ECCENTRICITY   = .0006865
INCLINATION    = 97.5756
RA_OF_ASC_NODE = 226.0442
ARG_OF_PERICENTER = 341.6720
MEAN_ANOMALY   = 18.4279

EPHEMERIS_TYPE = 0
CLASSIFICATION_TYPE = U
NORAD_CAT_ID   = 10114
ELEMENT_SET_NO = 999
REV_AT_EPOCH   = 66617
BSTAR          = .28358E-3
MEAN_MOTION_DOT = .13317E-3
MEAN_MOTION_DDOT = 0

CCSDS_OMM_VERS = 2.0
CREATION_DATE  = 
ORIGINATOR     = 

OBJECT_NAME    = SEASAT 1
OBJECT_ID      = 1978-064A
CENTER_NAME    = EARTH
REF_FRAME      = TEME
TIME_SYSTEM    = UTC
MEAN_ELEMENT_THEORY = SGP/SGP4

EPOCH          = 2026-02-23T09:14:17.338560
MEAN_MOTION    = 14.46148188
ECCENTRICITY   = .00019445
INCLINATION    = 108.0143
RA_OF_ASC_NODE = 95.4810
ARG_OF_PERICENTER = 291.2001
MEAN_ANOMALY   = 68.8937

EPHEMERIS_TYPE = 0
CLASSIFICATION_TYPE = U
NORAD_CAT_ID   = 10967
ELEMENT_SET_NO = 999
REV_AT_EPOCH   = 50444
BSTAR          = .10203515E-3
MEAN_MOTION_DOT = .227E-5
MEAN_MOTION_DDOT = 0

CCSDS_OMM_VERS = 2.0
CREATION_DATE  = 
ORIGINATOR     = 

OBJECT_NAME    = SL-14 R/B
OBJECT_ID      = 1979-011B
CENTER_NAME    = EARTH
REF_FRAME      = TEME
TIME_SYSTEM    = UTC
MEAN_ELEMENT_THEORY = SGP/SGP4

EPOCH          = 2026-02-23T10:17:13.882560
MEAN_MOTION    = 14.91889876
ECCENTRICITY   = .00175997
INCLINATION    = 82.5232
RA_OF_ASC_NODE = 110.1052
ARG_OF_PERICENTER = 104.1874
MEAN_ANOMALY   = 256.1302

EPHEMERIS_TYPE = 0
CLASSIFICATION_TYPE = U
NORAD_CAT_ID   = 11267
ELEMENT_SET_NO = 999
REV_AT_EPOCH   = 52665
BSTAR          = .49237274E-4
MEAN_MOTION_DOT = .525E-5
MEAN_MOTION_DDOT = 0

CCSDS_OMM_VERS = 2.0
CREATION_DATE  = 
ORIGINATOR     = 

OBJECT_NAME    = SL-8 R/B
OBJECT_ID      = 1979-089B
CENTER_NAME    = EARTH
REF_FRAME      = TEME
TIME_SYSTEM    = UTC
MEAN_ELEMENT_THEORY = SGP/SGP4

EPOCH          = 2026-02-23T15:58:19.581024
MEAN_MOTION    = 14.42341335
ECCENTRICITY   = .001702
INCLINATION    = 74.0684
RA_OF_ASC_NODE = 117.0055
ARG_OF_PERICENTER = 291.1678
MEAN_ANOMALY   = 68.7660

EPHEMERIS_TYPE = 0
CLASSIFICATION_TYPE = U
NORAD_CAT_ID   = 11574
ELEMENT_SET_NO = 999
REV_AT_EPOCH   = 43408
BSTAR          = .79604E-4
MEAN_MOTION_DOT = .237E-5
MEAN_MOTION_DDOT = 0

CCSDS_OMM_VERS = 2.0
CREATION_DATE  = 
ORIGINATOR     = 

OBJECT_NAME    = SL-14 R/B
OBJECT_ID      = 1980-005B
CENTER_NAME    = EARTH
REF_FRAME      = TEME
TIME_SYSTEM    = UTC
MEAN_ELEMENT_THEORY = SGP/SGP4

EPOCH          = 2026-02-23T16:49:03.829728
MEAN_MOTION    = 14.90911344
ECCENTRICITY   = .001493
INCLINATION    = 82.5167
RA_OF_ASC_NODE = 320.5033
ARG_OF_PERICENTER = 205.0690
MEAN_ANOMALY   = 154.9806

EPHEMERIS_TYPE = 0
CLASSIFICATION_TYPE = U
NORAD_CAT_ID   = 11672
ELEMENT_SET_NO = 999
REV_AT_EPOCH   = 47440
BSTAR          = .57674E-4
MEAN_MOTION_DOT = .595E-5
MEAN_MOTION_DDOT = 0

CCSDS_OMM_VERS = 2.0
CREATION_DATE  = 
ORIGINATOR     = 

OBJECT_NAME    = SL-8 R/B
OBJECT_ID      = 1981-003B
CENTER_NAME    = EARTH
REF_FRAME      = TEME
TIME_SYSTEM    = UTC
MEAN_ELEMENT_THEORY = SGP/SGP4

EPOCH          = 2026-02-23T15:02:25.316160
MEAN_MOTION    = 15.10406856
ECCENTRICITY   = .0262683
INCLINATION    = 82.9394
RA_OF_ASC_NODE = 303.0224
ARG_OF_PERICENTER = 227.5394
MEAN_ANOMALY   = 130.3367

EPHEMERIS_TYPE = 0
CLASSIFICATION_TYPE = U
NORAD_CAT_ID   = 12139
ELEMENT_SET_NO = 999
REV_AT_EPOCH   = 31255
BSTAR          = .45089E-3
MEAN_MOTION_DOT = .17262E-3
MEAN_MOTION_DDOT = 0

CCSDS_OMM_VERS = 2.0
CREATION_DATE  = 
ORIGINATOR     = 

OBJECT_NAME    = SL-3 R/B
OBJECT_ID      = 1981-046B
CENTER_NAME    = EARTH
REF_FRAME      = TEME
TIME_SYSTEM    = UTC
MEAN_ELEMENT_THEORY = SGP/SGP4

EPOCH          = 2026-02-23T18:22:59.094336
MEAN_MOTION    = 15.41588984
ECCENTRICITY   = .00206
INCLINATION    = 81.2322
RA_OF_ASC_NODE = 306.4575
ARG_OF_PERICENTER = 68.6204
MEAN_ANOMALY   = 291.7234

EPHEMERIS_TYPE = 0
CLASSIFICATION_TYPE = U
NORAD_CAT_ID   = 12465
ELEMENT_SET_NO = 999
REV_AT_EPOCH   = 43628
BSTAR          = .31787E-3
MEAN_MOTION_DOT = .13501E-3
MEAN_MOTION_DDOT = 0

CCSDS_OMM_VERS = 2.0
CREATION_DATE  = 
ORIGINATOR     = 

OBJECT_NAME    = SL-3 R/B
OBJECT_ID      = 1981-103B
CENTER_NAME    = EARTH
REF_FRAME      = TEME
TIME_SYSTEM    = UTC
MEAN_ELEMENT_THEORY = SGP/SGP4

EPOCH          = 2026-02-23T18:17:42.368352
MEAN_MOTION    = 15.21186970
ECCENTRICITY   = .0012855
INCLINATION    = 81.1568
RA_OF_ASC_NODE = 229.7691
ARG_OF_PERICENTER = 336.4304
MEAN_ANOMALY   = 23.6336

EPHEMERIS_TYPE = 0
CLASSIFICATION_TYPE = U
NORAD_CAT_ID   = 12904
ELEMENT_SET_NO = 999
REV_AT_EPOCH   = 97111
BSTAR          = .28341E-3
MEAN_MOTION_DOT = .6356E-4
MEAN_MOTION_DDOT = 0

CCSDS_OMM_VERS = 2.0
CREATION_DATE  = 
ORIGINATOR     = 

OBJECT_NAME    = SL-3 R/B
OBJECT_ID      = 1982-013B
CENTER_NAME    = EARTH
REF_FRAME      = TEME
TIME_SYSTEM    = UTC
MEAN_ELEMENT_THEORY = SGP/SGP4

EPOCH          = 2026-02-23T18:37:51.780000
MEAN_MOTION    = 15.21849721
ECCENTRICITY   = .0021952
INCLINATION    = 81.1759
RA_OF_ASC_NODE = 177.0720
ARG_OF_PERICENTER = 225.0547
MEAN_ANOMALY   = 134.8905

EPHEMERIS_TYPE = 0
CLASSIFICATION_TYPE = U
NORAD_CAT_ID   = 13068
ELEMENT_SET_NO = 999
REV_AT_EPOCH   = 40223
BSTAR          = .22721E-3
MEAN_MOTION_DOT = .5223E-4
MEAN_MOTION_DDOT = 0

CCSDS_OMM_VERS = 2.0
CREATION_DATE  = 
ORIGINATOR     = 

OBJECT_NAME    = SL-3 R/B
OBJECT_ID      = 1982-039B
CENTER_NAME    = EARTH
REF_FRAME      = TEME
TIME_SYSTEM    = UTC
MEAN_ELEMENT_THEORY = SGP/SGP4

EPOCH          = 2026-02-23T19:23:02.563584
MEAN_MOTION    = 15.09991251
ECCENTRICITY   = .002998
INCLINATION    = 81.1590
RA_OF_ASC_NODE = 231.9652
ARG_OF_PERICENTER = 9.7809
MEAN_ANOMALY   = 350.3993

EPHEMERIS_TYPE = 0
CLASSIFICATION_TYPE = U
NORAD_CAT_ID   = 13154
ELEMENT_SET_NO = 999
REV_AT_EPOCH   = 37954
BSTAR          = .15329E-3
MEAN_MOTION_DOT = .2539E-4
MEAN_MOTION_DDOT = 0

