ATLAS CENTAUR R/B       
1 06155U 72065B   26054.63938059  .00001326  00000+0  18369-3 0  9998
2 06155  35.0025  28.0888 0034427 252.1783 107.5160 14.77641407839186
SL-8 R/B                
1 08459U 75112B   26054.38249589  .00000160  00000+0  61345-4 0  9996
2 08459  74.0599  45.2307 0014817 144.0237 216.1918 14.38194734629813
SL-3 R/B                
1 10114U 77057B   26054.73170976  .00013317  00000+0  28358-3 0  9993
2 10114  97.5756 226.0442 0006865 341.6720  18.4279 15.45054469666176
SEASAT 1                
1 10967U 78064A   26054.38492290  .00000227  00000+0  10204-3 0  9992
2 10967 108.0143  95.4810 0001944 291.2001  68.8937 14.46148188504445
SL-14 R/B               
1 11267U 79011B   26054.42863290  .00000525  00000+0  49237-4 0  9996
2 11267  82.5232 110.1052 0017599 104.1874 256.1302 14.91889876526651
SL-8 R/B                
1 11574U 79089B   26054.66550441  .00000237  00000+0  79604-4 0  9990
2 11574  74.0684 117.0055 0017020 291.1678  68.7660 14.42341335434084
SL-14 R/B               
1 11672U 80005B   26054.70073877  .00000595  00000+0  57674-4 0  9997
2 11672  82.5167 320.5033 0014930 205.0690 154.9806 14.90911344474401
SL-8 R/B                
1 12139U 81003B   26054.62668190  .00017262  00000+0  45089-3 0  9999
2 12139  82.9394 303.0224 0262683 227.5394 130.3367 15.10406856312551
SL-3 R/B                
1 12465U 81046B   26054.76596174  .00013501  00000+0  31787-3 0  9997
2 12465  81.2322 306.4575 0020600  68.6204 291.7234 15.41588984436286
SL-3 R/B                
1 12904U 81103B   26054.76229593  .00006356  00000+0  28341-3 0  9999
2 12904  81.1568 229.7691 0012855 336.4304  23.6336 15.21186970971119
SL-3 R/B                
1 13068U 82013B   26054.77629375  .00005223  00000+0  22721-3 0  9993
2 13068  81.1759 177.0720 0021952 225.0547 134.8905 15.21849721402230
SL-3 R/B                
1 13154U 82039B   26054.80766856  .00002539  00000+0  15329-3 0  9990
2 13154  81.1590 231.9652 0029980   9.7809 350.3993 15.09991251379541
